GSAT0101 (PRN E11)      
1 37846U 11060A   23043.75198432 -.00000060  00000+0  00000+0 0  9992
2 37846  57.0706  14.8114 0003658 344.4020  15.5839  1.70475925 70315
GSAT0102 (PRN E12)      
1 37847U 11060B   23043.97132859 -.00000060  00000+0  00000+0 0  9998
2 37847  57.0714  14.8052 0005127 325.5556 215.7794  1.70475255 70324
GSAT0103 (PRN E19)      
1 38857U 12055A   23042.03118873  .00000014  00000+0  00000+0 0  9999
2 38857  55.2108 135.1378 0003844 251.7201 108.2704  1.70473547 64177
GSAT0104 (PRN E20)      
1 38858U 12055B   23042.58752123  .00000013  00000+0  00000+0 0  9991
2 38858  55.2108 135.1242 0001932 230.6435 129.3714  1.70473711 64188
GSAT0201 (PRN E18)      
1 40128U 14050A   23041.98541367 -.00000073  00000+0  00000+0 0  9997
2 40128  50.1089 322.7729 1612369 132.6412 242.1379  1.85519411 55642
GSAT0202 (PRN E14)      
1 40129U 14050B   23044.40152946 -.00000070  00000+0  00000+0 0  9996
2 40129  50.1284 321.7432 1609710 133.5388 241.0233  1.85519951 57859
GSAT0203 (PRN E26)      
1 40544U 15017A   23042.94478752 -.00000061  00000+0  00000+0 0  9994
2 40544  56.8673  14.8337 0004683 278.2059  81.7377  1.70475536 48388
GSAT0204 (PRN E22)      
1 40545U 15017B   23042.61149797 -.00000061  00000+0  00000+0 0  9993
2 40545  56.8722  14.8563 0004040 268.5922  91.3578  1.70475502 11421
GSAT0205 (PRN E24)      
1 40889U 15045A   23044.13948517  .00000071  00000+0  00000+0 0  9991
2 40889  55.4758 255.3115 0006379  33.0223 327.0653  1.70473216 46215
GSAT0206 (PRN E30)      
1 40890U 15045B   23042.60042773  .00000066  00000+0  00000+0 0  9996
2 40890  55.4749 255.3499 0004438  29.3082 330.7634  1.70473335 46219
GSAT0209 (PRN E09)      
1 41174U 15079A   23044.53261221  .00000006  00000+0  00000+0 0  9998
2 41174  55.2283 134.7744 0003528 299.9242  60.0681  1.70474774 43985
GSAT0208 (PRN E08)      
1 41175U 15079B   23041.23267065  .00000013  00000+0  00000+0 0  9993
2 41175  55.2260 134.8637 0002383 298.6141  61.3942  1.70474879 44346
GSAT0211 (PRN E02)      
1 41549U 16030A   23036.07368906  .00000060  00000+0  00000+0 0  9990
2 41549  55.6244 255.4884 0004468   1.7528 358.3235  1.70473448 41734
GSAT0210 (PRN E01)      
1 41550U 16030B   23043.99092486  .00000071  00000+0  00000+0 0  9990
2 41550  55.6204 255.2712 0002397 347.9105  12.1313  1.70474826 41862
GSAT0207 (PRN E07)      
1 41859U 16069A   23044.24002783  .00000007  00000+0  00000+0 0  9993
2 41859  54.8893 134.9042 0005469 280.6321  79.3343  1.70474845 38601
GSAT0212 (PRN E03)      
1 41860U 16069B   23042.92101372  .00000012  00000+0  00000+0 0  9998
2 41860  54.8869 134.9381 0002178 309.1839  50.8284  1.70473451 38832
GSAT0213 (PRN E04)      
1 41861U 16069C   23042.69964479  .00000013  00000+0  00000+0 0  9999
2 41861  54.8898 134.9499 0003854 259.0537 100.9349  1.70473642 38690
GSAT0214 (PRN E05)      
1 41862U 16069D   23043.43337985  .00000011  00000+0  00000+0 0  9997
2 41862  54.8878 134.9238 0002559 256.7963 103.2056  1.70473741 38835
GSAT0215 (PRN E21)      
1 43055U 17079A   23043.92346450  .00000071  00000+0  00000+0 0  9992
2 43055  55.5965 255.1007 0001832 357.7259   2.3205  1.70474011 32187
GSAT0216 (PRN E25)      
1 43056U 17079B   23037.17654771  .00000060  00000+0  00000+0 0  9999
2 43056  55.6008 255.2867 0003122 323.6505  36.3981  1.70474266 32081
GSAT0217 (PRN E27)      
1 43057U 17079C   23043.26265478  .00000068  00000+0  00000+0 0  9997
2 43057  55.5953 255.1180 0003245 343.0829  16.9528  1.70474125 32173
GSAT0218 (PRN E31)      
1 43058U 17079D   23044.06925934  .00000071  00000+0  00000+0 0  9991
2 43058  55.5954 255.0932 0002914 311.6182  48.4043  1.70474097 32219
GSAT0221 (PRN E15)      
1 43564U 18060A   23041.62140764 -.00000062  00000+0  00000+0 0  9994
2 43564  57.2467  14.7458 0005444 290.9498  68.9865  1.70475607 28326
GSAT0222 (PRN E33)      
1 43565U 18060B   23040.66811449 -.00000064  00000+0  00000+0 0  9995
2 43565  57.2482  14.7725 0005200 297.2031  62.7370  1.70475647 28354
GSAT0219 (PRN E36)      
1 43566U 18060C   23043.82158359 -.00000060  00000+0  00000+0 0  9997
2 43566  57.2500  14.6894 0004836 300.5112  59.4381  1.70475529 28381
GSAT0220 (PRN E13)      
1 43567U 18060D   23041.69553246 -.00000062  00000+0  00000+0 0  9997
2 43567  57.2490  14.7478 0004963 295.7921  64.1514  1.70475575 28330
GSAT0223 (PRN E34)      
1 49809U 21116A   23044.18465955 -.00000060  00000+0  00000+0 0  9992
2 49809  57.2419  14.5778 0002117 259.7063 278.0398  1.70475573  7389
GSAT0224 (PRN E10)      
1 49810U 21116B   23042.24460711 -.00000061  00000+0  00000+0 0  9995
2 49810  57.2409  14.6281 0001734 276.7480 262.8219  1.70475745  7379
